GLOBALSTAR M001         
1 25162U 98008A   24207.44552323 -.00000070  00000+0  20431-3 0  9994
2 25162  52.0001 204.2171 0001725 281.5481 234.5929 12.38189170203343
GLOBALSTAR M004         
1 25163U 98008B   24207.74894694 -.00000054  00000+0  27561-3 0  9991
2 25163  52.0021 330.0173 0002255 283.3842 229.3960 12.63365889220523
GLOBALSTAR M002         
1 25164U 98008C   24207.40453098 -.00000071  00000+0  11518-3 0  9998
2 25164  52.0045 339.5542 0000681 246.8004 113.2744 11.61502498146163
GLOBALSTAR M003         
1 25165U 98008D   24206.91834321  .00000055  00000+0  15396-2 0  9994
2 25165  51.9922 354.9198 0007685   0.0214 169.9377 12.12021279193621
GLOBALSTAR M014         
1 25306U 98023A   24207.55234057 -.00000070  00000+0  13847-3 0  9997
2 25306  51.9830 269.2773 0001210 132.1763   8.9217 11.65469271153072
GLOBALSTAR M006         
1 25307U 98023B   24207.28130706 -.00000051  00000+0  49763-3 0  9999
2 25307  51.9960 310.2176 0003693 226.5313 159.6853 11.58163503178952
GLOBALSTAR M015         
1 25308U 98023C   24207.02252413 -.00000139  00000+0 -14840-2 0  9997
2 25308  51.9839  34.3349 0012133 211.5958 323.4422 11.48849036156479
GLOBALSTAR M008         
1 25309U 98023D   24207.69801584 -.00000091  00000+0  42900-4 0  9996
2 25309  51.9977  64.6131 0002007 192.2003 198.4645 12.36045636197781
